[{"OBJECT_NAME":"OBJECT AL","OBJECT_ID":"2023-085AL","EPOCH":"2026-03-09T22:26:04.970400","MEAN_MOTION":15.31857284,"ECCENTRICITY":0.000802,"INCLINATION":97.4839,"RA_OF_ASC_NODE":180.0127,"ARG_OF_PERICENTER":78.7242,"MEAN_ANOMALY":281.49,"EPHEMERIS_TYPE":0,"CLASSIFICATION_TYPE":"U","NORAD_CAT_ID":57038,"ELEMENT_SET_NO":999,"REV_AT_EPOCH":15154,"BSTAR":0.0006591637,"MEAN_MOTION_DOT":0.00020246,"MEAN_MOTION_DDOT":0},{"OBJECT_NAME":"STARLINK-35429","OBJECT_ID":"2025-270C","EPOCH":"2026-03-09T23:12:09.447264","MEAN_MOTION":15.2761392,"ECCENTRICITY":0.00011618,"INCLINATION":43.0021,"RA_OF_ASC_NODE":55.0111,"ARG_OF_PERICENTER":238.4822,"MEAN_ANOMALY":121.5916,"EPHEMERIS_TYPE":0,"CLASSIFICATION_TYPE":"U","NORAD_CAT_ID":66590,"ELEMENT_SET_NO":999,"REV_AT_EPOCH":1785,"BSTAR":0.0014584051,"MEAN_MOTION_DOT":0.0004013,"MEAN_MOTION_DDOT":0}]
